ORBCOMM FM108           
1 41187U 15081J   24078.99895386  .00000895  00000+0  23743-3 0  9997
2 41187  47.0044  93.6784 0002564 357.1183   2.9686 14.56362706440407
ORBCOMM FM117           
1 41188U 15081K   24079.03345140  .00000907  00000+0  23995-3 0  9995
2 41188  47.0004  92.4277 0002765  12.0578 348.0372 14.56367135440458
ORBCOMM FM116           
1 41189U 15081L   24079.36599081  .00001635  00000+0  40234-3 0  9991
2 41189  47.0014 180.6817 0001484 160.1578 199.9364 14.56386922439314
